{
    "links": {
        "self": "http://www.neowsapp.com/rest/v1/neo/3601929?api_key=iIulBulltgU6a56xZRHN4H3l9WmuAYTsLGpBGhQ2"
    },
    "id": "3601929",
    "neo_reference_id": "3601929",
    "name": "(2012 FA57)",
    "designation": "2012 FA57",
    "nasa_jpl_url": "http://ssd.jpl.nasa.gov/sbdb.cgi?sstr=3601929",
    "absolute_magnitude_h": 26.0,
    "estimated_diameter": {
        "kilometers": {
            "estimated_diameter_min": 0.0167708462,
            "estimated_diameter_max": 0.0375007522
        },
        "meters": {
            "estimated_diameter_min": 16.7708462163,
            "estimated_diameter_max": 37.5007521798
        },
        "miles": {
            "estimated_diameter_min": 0.0104209175,
            "estimated_diameter_max": 0.0233018799
        },
        "feet": {
            "estimated_diameter_min": 55.0224631002,
            "estimated_diameter_max": 123.0339677816
        }
    },
    "is_potentially_hazardous_asteroid": false,
    "close_approach_data": [
        {
            "close_approach_date": "2012-04-04",
            "close_approach_date_full": "2012-Apr-04 09:39",
            "epoch_date_close_approach": 1333532340000,
            "relative_velocity": {
                "kilometers_per_second": "8.7636951877",
                "kilometers_per_hour": "31549.3026756583",
                "miles_per_hour": "19603.5097653278"
            },
            "miss_distance": {
                "astronomical": "0.0040032184",
                "lunar": "1.5572519576",
                "kilometers": "598872.945784808",
                "miles": "372122.3929660304"
            },
            "orbiting_body": "Moon"
        },
        {
            "close_approach_date": "2012-04-04",
            "close_approach_date_full": "2012-Apr-04 21:45",
            "epoch_date_close_approach": 1333575900000,
            "relative_velocity": {
                "kilometers_per_second": "9.235518381",
                "kilometers_per_hour": "33247.8661716813",
                "miles_per_hour": "20658.9310665094"
            },
            "miss_distance": {
                "astronomical": "0.0029481509",
                "lunar": "1.1468307001",
                "kilometers": "441037.095078583",
                "miles": "274047.7431191254"
            },
            "orbiting_body": "Earth"
        }
    ],
    "orbital_data": {
        "orbit_id": "9",
        "orbit_determination_date": "2017-04-06 08:50:16",
        "first_observation_date": "2012-03-28",
        "last_observation_date": "2012-04-03",
        "data_arc_in_days": 6,
        "observations_used": 38,
        "orbit_uncertainty": "8",
        "minimum_orbit_intersection": ".00031464",
        "jupiter_tisserand_invariant": "3.167",
        "epoch_osculation": "2456016.5",
        "eccentricity": ".6110046185661768",
        "semi_major_axis": "2.518939292338833",
        "inclination": ".3194133193408292",
        "ascending_node_longitude": "190.8671160096877",
        "orbital_period": "1460.242479560324",
        "perihelion_distance": ".9798557508319889",
        "perihelion_argument": "22.15501363380073",
        "aphelion_distance": "4.058022833845677",
        "perihelion_time": "2456036.349816847810",
        "mean_anomaly": "355.1063373616118",
        "mean_motion": ".2465343975668995",
        "equinox": "J2000",
        "orbit_class": {
            "orbit_class_type": "APO",
            "orbit_class_description": "Near-Earth asteroid orbits which cross the Earth’s orbit similar to that of 1862 Apollo",
            "orbit_class_range": "a (semi-major axis) > 1.0 AU; q (perihelion) < 1.017 AU"
        }
    },
    "is_sentry_object": false
}